HORYU-4                 
1 41340U 16012D   20058.87727176  .00000414  00000-0  24645-4 0  9996
2 41340  31.0056 315.9396 0013825 132.1696 228.0116 15.01426390221244
E-ST@R-II               
1 41459U 16025D   20058.85599124  .00000765  00000-0  43126-4 0  9993
2 41459  98.0945 163.1789 0165009 223.3995 135.4121 15.06074748210797
AAUSAT 4                
1 41460U 16025E   20058.82585264  .00003179  00000-0  15968-3 0  9996
2 41460  98.0928 165.1018 0154752 213.7054 145.4253 15.08243244210966
DIWATA-1                
1 41463U 98067HT  20058.71060597  .00121492  17938-4  18562-3 0  9994
2 41463  51.6224 352.3623 0002700 129.0335 304.4069 16.04150798220175
BEESAT-4                
1 41619U 16040W   20057.72999867  .00001078  00000-0  47751-4 0  9997
2 41619  97.3344 119.8406 0010450 205.3228 154.7498 15.23714685192387
CANX-7                  
1 41788U 16059F   20058.78873697  .00007505  00000-0  10691-2 0  9995
2 41788  98.2535 143.9884 0024025 279.5455  80.3020 14.76908392183474
RAVAN                   
1 41849U 16067B   20058.83106950  .00000407  00000-0  39250-4 0  9997
2 41849  97.9231 166.8813 0007627 245.7098 114.3328 14.98452546180053
CELTEE 1                
1 41850U 16067C   20057.25575275  .00000103  00000-0  14179-4 0  9990
2 41850  97.9201 163.3318 0007117 261.0143  99.0272 14.97131162179715
OPTICUBE 04             
1 41851U 16067D   20058.83857912  .00000674  00000-0  64038-4 0  9999
2 41851  97.9186 164.6118 0007317 255.2369 104.8041 14.96887353179939
AEROCUBE 8D             
1 41852U 16067E   20058.85271912  .00000236  00000-0  25877-4 0  9994
2 41852  97.9198 164.4563 0008022 256.9436 103.0889 14.96851351179910
AEROCUBE 8C             
1 41853U 16067F   20058.81482455  .00000043  00000-0  90253-5 0  9994
2 41853  97.9184 164.3328 0008886 258.4600 101.5624 14.96808404179902
PROMETHEUS 2-1          
1 41854U 16067G   20058.73999264 -.00000161  00000-0 -86311-5 0  9990
2 41854  97.9197 164.5190 0009180 258.4926 101.5265 14.97095645179902
PROMETHEUS 2-3          
1 41855U 16067H   20058.74116369 -.00000109  00000-0 -41608-5 0  9991
2 41855  97.9199 164.5471 0009377 258.8372 101.1795 14.97104864179902
INS-1B                  
1 41954U 17008G   20058.82388663  .00000932  00000-0  40774-4 0  9998
2 41954  97.3680 125.1478 0008296 341.2722  18.8209 15.24504026168510
BGUSAT                  
1 41999U 17008BD  20057.96082897  .00001731  00000-0  68000-4 0  9991
2 41999  97.3776 127.8457 0007488 357.0485   3.0709 15.27038018167936
DIDO-2                  
1 42000U 17008BE  20058.43976311  .00000626  00000-0  28506-4 0  9990
2 42000  97.3690 125.3076 0008337   3.0795 357.0492 15.24293288167852
PEASSS                  
1 42015U 17008BV  20058.82561827  .00000844  00000-0  36292-4 0  9994
2 42015  97.3707 127.0726 0006309  10.0203 350.1160 15.25367108168487
AL-FARABI 1             
1 42016U 17008BW  20058.24957999  .00001128  00000-0  46466-4 0  9990
2 42016  97.3733 127.3752 0006199  10.9743 349.1630 15.26136686168569
NAYIF-1 (EO-88)         
1 42017U 17008BX  20056.85430371  .00001391  00000-0  56613-4 0  9993
2 42017  97.3731 126.0102 0006366  15.5767 344.5667 15.26172075168376
NSIGHT                  
1 42726U 98067MF  20057.10450992  .00085546  13836-4  28173-3 0  9992
2 42726  51.6290  84.2991 0005600  56.2872 303.8667 15.90510277157687
UCLSAT                  
1 42765U 17036A   20058.80691046  .00000927  00000-0  41970-4 0  9993
2 42765  97.3168 115.9438 0012774  60.7767 299.4746 15.23269451149738
LITUANICASAT-2          
1 42768U 17036D   20058.81745121  .00001535  00000-0  66750-4 0  9990
2 42768  97.3217 115.7722 0015952  50.8787 309.3866 15.23643695148990
AALTO-1                 
1 42775U 17036L   20058.78615277  .00000541  00000-0  26886-4 0  9994
2 42775  97.3146 114.0438 0015183  53.1185 307.1440 15.21676176148845
URSA MAIOR              
1 42776U 17036M   20058.78812474  .00000606  00000-0  29618-4 0  9991
2 42776  97.3158 114.2845 0014993  53.0500 307.2107 15.21841266148857
COMPASS 2               
1 42777U 17036N   20058.76634651  .00001236  00000-0  54492-4 0  9997
2 42777  97.3210 116.1736 0013589  52.7659 307.4815 15.23580315148943
DIAMOND RED             
1 42783U 17036U   20057.83279842  .00000855  00000-0  39626-4 0  9996
2 42783  97.3170 114.3730 0013555  65.2512 295.0134 15.22624052148761
PEGASUS                 
1 42784U 17036V   20058.81013508  .00000815  00000-0  37546-4 0  9996
2 42784  97.3173 115.6793 0013359  61.3393 298.9185 15.22975949148935
DIAMOND GREEN           
1 42785U 17036W   20056.58293773  .00000943  00000-0  43420-4 0  9993
2 42785  97.3174 113.1876 0013523  69.6751 290.5938 15.22623887148647
DIAMOND BLUE            
1 42786U 17036X   20057.83080831  .00000839  00000-0  38964-4 0  9993
2 42786  97.3171 114.3991 0013311  66.0931 294.1699 15.22623805148758
NUDTSAT                 
1 42787U 17036Y   20058.95795433  .00001456  00000-0  62588-4 0  9994
2 42787  97.3219 116.9757 0013169  51.3210 308.9205 15.24169413148869
SUCHAI                  
1 42788U 17036Z   20058.08449945  .00001164  00000-0  51616-4 0  9999
2 42788  97.3181 115.4620 0012907  62.6120 297.6428 15.23479034148925
SKCUBE                  
1 42789U 17036AA  20057.46286641  .00001096  00000-0  48961-4 0  9996
2 42789  97.3177 114.7406 0012839  64.7802 295.4764 15.23339487148745
VZLUSAT-1               
1 42790U 17036AB  20058.81485964  .00001241  00000-0  53794-4 0  9999
2 42790  97.3196 116.8325 0012232  59.2185 301.0255 15.24159375148994
ROBUSTA-1B              
1 42792U 17036AD  20058.80959741  .00000937  00000-0  42083-4 0  9999
2 42792  97.3176 116.2714 0012341  61.2175 299.0300 15.23525451148979
CICERO 6                
1 42793U 17036AE  20058.81776821  .00000629  00000-0  29698-4 0  9992
2 42793  97.3155 115.8209 0011693  63.4443 296.7991 15.22953844149029
D-SAT                   
1 42794U 17036AF  20058.86247786  .00000154  00000-0  18706-4 0  9992
2 42794  97.5082  96.9092 0126605  14.8105 345.6768 14.91225479146210
CORVUS BC2              
1 42846U 17042X   20058.72156941  .00000048  00000-0  99817-5 0  9999
2 42846  97.5388 307.1673 0008177 291.7677  68.2672 14.92064946142895
CORVUS BC1              
1 42847U 17042Y   20058.72475783  .00000010  00000-0  62081-5 0  9990
2 42847  97.5390 307.3200 0007812 291.0586  68.9798 14.92165933142898
MIRATA                  
1 43015U 17073C   20058.83081220  .00001061  00000-0  86753-4 0  9991
2 43015  97.7225 335.2430 0255148  49.5871 312.7300 14.79430429122864
MAKERSAT 0              
1 43016U 17073D   20058.55874536  .00000719  00000-0  60521-4 0  9995
2 43016  97.7262 335.1780 0257717  51.2734 311.1213 14.79057827122802
ASTERIA                 
1 43020U 98067NH  20058.37469312  .00093653  00000-0  30666-3 0  9999
2 43020  51.6400  90.2382 0003198  43.9638 316.1622 15.89819716129902
DELLINGR (RBLE)         
1 43021U 98067NJ  20056.71905211  .00009185  00000-0  87015-4 0  9997
2 43021  51.6364 134.7278 0002178 358.8269   1.2721 15.67770853129169
AEROCUBE 7B (OCSD B)    
1 43042U 17071F   20058.82640606  .00002529  00000-0  66203-4 0  9995
2 43042  51.6366 249.0875 0004377   9.6643 350.4427 15.42788200125297
AEROCUBE 7C (OCSD C)    
1 43043U 17071G   20058.82801576  .00002561  00000-0  66963-4 0  9990
2 43043  51.6366 249.1128 0004631  13.5687 346.5423 15.42765975125268
CHEFSAT                 
1 43044U 17071H   20058.48520707  .00005778  00000-0  12195-3 0  9997
2 43044  51.6370 239.5453 0004245  14.6307 345.4802 15.46744819125368
ASGARDIA 1              
1 43049U 17071N   20058.82598795  .00002431  00000-0  63843-4 0  9992
2 43049  51.6378 248.4086 0002488  36.5573 323.5582 15.42851537125271
ISARA                   
1 43050U 17071P   20058.85608694  .00005154  00000-0  11262-3 0  9999
2 43050  51.6354 239.6796 0002224  37.0435 323.0705 15.45963539125392
PROPCUBE 2 (FAUNA)      
1 43052U 17071R   20058.45398613  .00002984  00000-0  75300-4 0  9996
2 43052  51.6371 248.9433 0002363  32.6851 327.4281 15.43238611125224
CORVUS BC3              
1 43118U 18004H   20058.41127258  .00000601  00000-0  28401-4 0  9991
2 43118  97.4561 129.5363 0012024  83.9843 276.2763 15.23194240118097
MICROMAS-2A             
1 43131U 18004W   20058.83001255  .00001387  00000-0  58616-4 0  9993
2 43131  97.4600 131.3140 0010843  82.8709 277.3761 15.24895484118231
SPACEBEE-4              
1 43139U 18004AE  20058.23016089  .00001915  00000-0  77231-4 0  9997
2 43139  97.4626 131.6459 0010192  86.4633 273.7771 15.26022853118185
SPACEBEE-3              
1 43140U 18004AF  20057.44863448  .00002887  00000-0  11238-3 0  9993
2 43140  97.4641 131.3880 0009929  88.5010 271.7366 15.26781934118109
SPACEBEE-2              
1 43141U 18004AG  20058.82507651  .00002447  00000-0  94918-4 0  9997
2 43141  97.4648 132.9563 0009844  83.8214 276.4146 15.27049945118324
SPACEBEE-1              
1 43142U 18004AH  20058.48896616  .00002586  00000-0  99264-4 0  9995
2 43142  97.4653 132.8202 0009846  85.0219 275.2144 15.27346237118274
CICERO 7                
1 43143U 18004AJ  20058.44175203  .00001314  00000-0  55597-4 0  9993
2 43143  97.4581 131.1285 0009088  92.1281 268.0997 15.24971796118192
GOMX-4B                 
1 43196U 18015E   20058.92818630  .00000354  00000-0  17446-4 0  9998
2 43196  97.4203 188.4420 0020109 130.5174 229.7815 15.24154962115066
GOMX-4A                 
1 43197U 18015F   20058.91059462  .00000600  00000-0  27319-4 0  9992
2 43197  97.4195 188.4816 0020463 130.7053 346.7469 15.24345790115074
1KUNS-PF                
1 43466U 98067NP  20058.55547095  .00048481  00000-0  24242-3 0  9990
2 43466  51.6307 114.5285 0003139  25.9978 334.1181 15.81306301102854
UBAKUSAT                
1 43467U 98067NQ  20058.72857647  .00016203  00000-0  13626-3 0  9998
2 43467  51.6341 129.3221 0002138 348.4198  11.6749 15.70041777102681
